[
    {
        "id": 1,
        "placeName": "CoxsBazar",
        "location": "Chittagong",
        "view": "Ocean",
        "transpot": "Bus",
        "cost": 9000,
        "img": "https://media-cdn.tripadvisor.com/media/photo-c/1280x250/10/e2/f8/43/longest-sea-beach-in.jpg"
    },
    {
        "id": 2,
        "placeName": "Sundarban",
        "location": "Khulna",
        "transpot": "Bus",
        "view": "Forest",
        "cost": 6000,
        "img": "https://i.natgeofe.com/n/a50f7239-ff6d-4874-9448-25d94d8d1c80/sundarbans-bangladesh.jpg"
    },
    {
        "id": 3,
        "placeName": "Kuakata",
        "transpot": "Bus",
        "location": "Potuakhali",
        "view": "Sagarkonya",
        "cost": 8000,
        "img": "https://thefinancialexpress.com.bd/uploads/1593967459.jpg"
    },
    {
        "id": 4,
        "placeName": "Sajek valley",
        "transpot": "Bus",
        "location": "Rangamati",
        "view": "Hill",
        "cost": 12000,
        "img": "https://avijatrik.org/wp-content/uploads/2019/06/cover22-870x555.jpg"
    },
    {
        "id": 5,
        "placeName": "Mount Everest",
        "transpot": "Aircraft",
        "location": "Nepal",
        "view": "Hill",
        "cost": 150000,
        "img": "https://www.outsideonline.com/wp-content/uploads/2021/05/18/everest-sunset-landscape_s.jpg?crop=1:1&width=600&enable=upscale"
    },
    {
        "id": 6,
        "placeName": "Chalan bil",
        "transpot": "Shipping",
        "location": "Bangladesh",
        "view": "Bil",
        "cost": 5000,
        "img": "http://4.bp.blogspot.com/-TXhNZ_0NlhI/UfbTDF-_3XI/AAAAAAAAATk/sfCMhSPubfU/s1600/Beautifull+Chalanbil+great+looks+Phot+Credit-+Shobuz+Sarker.jpg"
    },
    {
        "id": 7,
        "placeName": "Mecca",
        "transpot": "Aircraft",
        "location": "Saudiarabia",
        "view": "Holy Land",
        "cost": 300000,
        "img": "https://cosmosgroup.sgp1.cdn.digitaloceanspaces.com/thumbnail/lead/news/1884084_New%20Project.jpg"
    },
    {
        "id": 8,
        "placeName": "Singapore city",
        "transpot": "Aircraft",
        "location": "Singapore",
        "view": "Garden",
        "cost": 200000,
        "img": "https://www.tripsavvy.com/thmb/eN3zOkI0CBR6RageeS-Y1_uX2CM=/2121x1193/smart/filters:no_upscale()/gardens-by-the-bay-5a45387b7d4be800364c249b.jpg"
    },
    {
        "id": 9,
        "placeName": "Watch whales",
        "transpot": "Aircraft",
        "location": "Greenland",
        "view": "Blue whale",
        "cost": 400000,
        "img": "https://awionline.org/sites/default/files/styles/large/public/page/image/whalewatching_flickr_Wade%20Tregaskis.jpg?itok=Y2PSpaDc"
    },
    {
        "id": 10,
        "placeName": "Mcleodganj",
        "transpot": "Bus/Aircraft",
        "location": "India",
        "view": "Hill",
        "cost": 100000,
        "img": "https://images.memphistours.com/large/0fe4fff50b8352f51d6290b5ca3c7751.jpg"
    },
    {
        "id": 11,
        "placeName": "Rajstan",
        "transpot": "Aircraft/Train",
        "location": "India",
        "view": "The desert",
        "cost": 120000,
        "img": "https://images.financialexpress.com/2019/03/RD-620x413.jpg"
    },
    {
        "id": 12,
        "placeName": "Burdge Khalifa",
        "transpot": "Aircraft",
        "location": "Dubai",
        "view": "Large building",
        "cost": 300000,
        "img": "https://media.gettyimages.com/photos/stylized-aerial-view-of-dubai-city-picture-id183342824?s=612x612"
    }
]